QIANFAN-60              
1 62790U 25016F   25324.26450089  .00000042  00000+0  46451-4 0  9997
2 62790  88.9742 105.3993 0016872  53.0708 307.1985 13.50976764 44190
QIANFAN-61              
1 62791U 25016G   25324.29723107  .00000078  00000+0  10253-3 0  9994
2 62791  88.9809 105.5435 0015815  52.5694 307.6894 13.50973845 44216
QIANFAN-62              
1 62792U 25016H   25324.30141261  .00000091  00000+0  12253-3 0  9999
2 62792  88.9755 105.4236 0017197  52.5247 307.7465 13.50983791 44209
QIANFAN-63              
1 62793U 25016J   25324.25204865  .00000106  00000+0  14491-3 0  9997
2 62793  88.9762 105.3788 0017358  57.6162 302.6666 13.50976932 44239
QIANFAN-64              
1 62794U 25016K   25324.21906814  .00000100  00000+0  13602-3 0  9994
2 62794  88.9749 105.3593 0015168  51.7482 308.5031 13.50978769 44226
QIANFAN-65              
1 62795U 25016L   25324.21500510  .00000099  00000+0  13415-3 0  9997
2 62795  88.9745 105.3865 0015036  53.4312 306.8220 13.50977722 44207
QIANFAN-66              
1 62796U 25016M   25324.24379922  .00000099  00000+0  13525-3 0  9994
2 62796  88.9764 105.3494 0016031  48.8942 311.3590 13.50981733 44253
QIANFAN-67              
1 62797U 25016N   25324.24799024  .00000106  00000+0  14470-3 0  9993
2 62797  88.9755 105.3767 0016155  55.3320 304.9351 13.50974645 44221
QIANFAN-68              
1 62798U 25016P   25324.23972450  .00000095  00000+0  12830-3 0  9994
2 62798  88.9758 105.4220 0016172  53.6687 306.5954 13.50976894 44209
QIANFAN-69              
1 62799U 25016Q   25324.25626867  .00000096  00000+0  12936-3 0  9993
2 62799  88.9737 105.2944 0016956  54.4340 305.8389 13.50980020 44247
QIANFAN-70              
1 62800U 25016R   25324.19847376  .00000054  00000+0  64576-4 0  9991
2 62800  88.9758 105.4342 0016347  45.6441 314.6046 13.50970313 44191
QIANFAN-71              
1 62801U 25016S   25324.26849667  .00000098  00000+0  13340-3 0  9995
2 62801  88.9752 105.4077 0016941  57.6915 302.5874 13.50977886 44209
QIANFAN-72              
1 62802U 25016T   25324.21090918  .00000102  00000+0  13825-3 0  9992
2 62802  88.9742 105.4293 0020338  63.9202 296.4039 13.50977785 44182
QIANFAN-73              
1 63159U 25046A   25324.23781606  .00000029  00000+0  26747-4 0  9990
2 63159  88.9750 322.3544 0014734 181.8038 178.3063 13.50973835 44374
QIANFAN-74              
1 63160U 25046B   25324.29533999  .00000054  00000+0  64664-4 0  9996
2 63160  88.9750 322.2370 0002017  86.7001 273.4381 13.50975993 44441
QIANFAN-75              
1 63161U 25046C   25324.28269336  .00000109  00000+0  15069-3 0  9992
2 63161  88.9752 322.4716 0015751 185.3311 174.7675 13.50988592 44313
QIANFAN-76              
1 63162U 25046D   25324.27901961 -.00000128  00000+0 -21717-3 0  9999
2 63162  88.9750 322.4529 0013291 184.9745 175.1277 13.50966288 44329
QIANFAN-77              
1 63163U 25046E   25324.03684652  .00000057  00000+0  31696-4 0  9996
2 63163  88.9751 320.6712 0015933 144.5222 215.7018 13.96077830 45288
QIANFAN-78              
1 63164U 25046F   25324.24602246  .00000002  00000+0 -15619-4 0  9997
2 63164  88.9750 322.3204 0014608 188.1044 171.9873 13.50974662 44399
QIANFAN-79              
1 63165U 25046G   25324.27470740  .00000031  00000+0  29674-4 0  9990
2 63165  88.9754 322.4241 0014342 185.8666 174.2320 13.50975459 44348
QIANFAN-80              
1 63166U 25046H   25324.29122071  .00000086  00000+0  11524-3 0  9998
2 63166  88.9752 322.1297 0013183 189.8053 170.2843 13.50979411 44507
QIANFAN-81              
1 63167U 25046J   25324.19593210  .00000113  00000+0  15559-3 0  9998
2 63167  88.9751 322.2077 0014544 178.6748 181.4444 13.50996115 44447
QIANFAN-82              
1 63168U 25046K   25324.22957567  .00000071  00000+0  90586-4 0  9999
2 63168  88.9751 322.2480 0012456 185.5803 174.5212 13.50976124 44438
QIANFAN-83              
1 63169U 25046L   25324.29138902  .00000060  00000+0  62363-4 0  9991
2 63169  88.9752 322.0620 0014176 172.3385 187.7992 13.61969493 44540
QIANFAN-84              
1 63170U 25046M   25324.25755800 -.00000025  00000+0 -56982-4 0  9994
2 63170  88.9750 322.3780 0015526 183.6087 176.4954 13.50986037 44368
QIANFAN-85              
1 63171U 25046N   25324.25416990  .00000133  00000+0  18791-3 0  9992
2 63171  88.9751 322.2501 0012845 184.6122 175.4913 13.50980981 44436
QIANFAN-86              
1 63172U 25046P   25324.18842199  .00000099  00000+0  13419-3 0  9992
2 63172  88.9753 322.1185 0010609 187.6370 172.4622 13.50977775 44509
QIANFAN-87              
1 63173U 25046Q   25324.23375729  .00000016  00000+0  67258-5 0  9990
2 63173  88.9749 322.2264 0011423 183.0360 177.0724 13.50970961 44445
QIANFAN-88              
1 63174U 25046R   25324.25018016  .00000086  00000+0  11502-3 0  9992
2 63174  88.9752 322.1786 0011553 191.4805 168.6085 13.50975419 44471
QIANFAN-89              
1 63175U 25046S   25324.28700520  .00000091  00000+0  12271-3 0  9994
2 63175  88.9752 322.3638 0016172 184.0878 176.0144 13.50978162 44376
QIANFAN-90              
1 63176U 25046T   25324.24168537  .00000018  00000+0  94601-5 0  9995
2 63176  88.9752 322.3409 0013196 180.8552 179.2579 13.50974671 44388
QIANFAN-91              
1 66033U 25233A   25324.26773541  .00000465  00000+0  23438-3 0  9991
2 66033  88.9956  64.6267 0017871 105.1701 255.1465 14.14597386  4836
QIANFAN-92              
1 66034U 25233B   25323.98575050  .00000580  00000+0  28950-3 0  9997
2 66034  88.9962  64.6600 0017071 107.1052 253.2007 14.15477507  4797
QIANFAN-93              
1 66035U 25233C   25324.19101359  .00000288  00000+0  14072-3 0  9994
2 66035  88.9973  64.6359 0017288 105.6983 254.6113 14.15208219  4826
QIANFAN-94              
1 66036U 25233D   25324.19461960  .00000537  00000+0  27059-3 0  9998
2 66036  88.9968  64.6366 0016030 106.3971 253.8980 14.14904122  4826
QIANFAN-95              
1 66037U 25233E   25324.23033512  .00000737  00000+0  30130-3 0  9998
2 66037  88.9964  64.6228 0016378 108.4634 251.8341 14.26187295  4831
QIANFAN-96              
1 66038U 25233F   25323.63099887  .00000563  00000+0  28434-3 0  9990
2 66038  88.9964  64.7002 0017308 110.0634 250.2418 14.14828605  4748
QIANFAN-97              
1 66039U 25233G   25324.19296274  .00000527  00000+0  26607-3 0  9992
2 66039  88.9964  64.6359 0017045 106.8843 253.4215 14.14724341  4827
QIANFAN-98              
1 66040U 25233H   25324.29956085  .00000722  00000+0  29519-3 0  9990
2 66040  88.9965  64.6147 0016229 108.3700 251.9260 14.26217932  4848
QIANFAN-99              
1 66041U 25233J   25323.69711178  .00000591  00000+0  29532-3 0  9995
2 66041  88.9930  64.6957 0016329 105.8437 254.4553 14.15491203  4756
QIANFAN-100             
1 66042U 25233K   25324.01838637  .00000685  00000+0  27948-3 0  9996
2 66042  88.9965  64.6469 0016845 109.7203 250.5809 14.26248294  4809
QIANFAN-101             
1 66043U 25233L   25324.22199283  .00000551  00000+0  22179-3 0  9990
2 66043  88.9965  64.6217 0016913 107.2030 253.1017 14.26654745  4833
QIANFAN-102             
1 66044U 25233M   25323.69011732  .00000479  00000+0  23348-3 0  9991
2 66044  88.9961  64.6891 0017502 110.5007 249.8061 14.16413162  4751
QIANFAN-103             
1 66045U 25233N   25323.69737850  .00000466  00000+0  23171-3 0  9998
2 66045  88.9963  64.6914 0016768 107.7697 252.5322 14.15375450  4753
QIANFAN-104             
1 66046U 25233P   25323.69063201  .00000579  00000+0  28171-3 0  9991
2 66046  89.0067  64.6725 0018685  96.9143 263.4171 14.16789733  4753
QIANFAN-105             
1 66047U 25233Q   25323.97415987  .00000237  00000+0  11306-3 0  9998
2 66047  88.9963  64.6586 0016961 109.1526 251.1500 14.15858797  4799
QIANFAN-106             
1 66048U 25233R   25324.11790914  .00000291  00000+0  14326-3 0  9997
2 66048  88.9954  64.6423 0017487 110.6597 249.6467 14.14836676  4817
QIANFAN-107             
1 66049U 25233S   25324.18434698  .00000413  00000+0  20010-3 0  9992
2 66049  88.9964  64.6342 0018152 106.9221 253.3958 14.16452947  4826
QIANFAN-108             
1 66050U 25233T   25323.97401704  .00000354  00000+0  17119-3 0  9992
2 66050  88.9971  64.6573 0017229 111.5144 248.7883 14.16211540  4795
